NSS-11                  
1 26554U 00059A   26202.22349661  .00000024  00000+0  00000+0 0  9995
2 26554   2.2123  80.9882 0003172  48.0770  66.3793  1.00273152 41637
AMC-6                   
1 26580U 00067A   26202.28593109  .00000089  00000+0  00000+0 0  9998
2 26580   0.2371  83.8850 0004118  48.0955 134.9464  1.00272745 94230
AMC-15                  
1 28446U 04041A   26202.28475601 -.00000088  00000+0  00000+0 0  9993
2 28446   0.0448 281.8100 0002427 196.5633 178.1300  1.00272097 79644
NSS-10                  
1 28526U 05003A   26202.03858720 -.00000256  00000+0  00000+0 0  9998
2 28526   6.5325  70.0394 0002866  46.5693 158.6310  1.00271840 53492
ASTRA 1KR               
1 29055U 06012A   26202.26367398  .00000120  00000+0  00000+0 0  9997
2 29055   0.5597  83.1898 0003529  28.9638 300.7936  1.00273798 46039
ASTRA 1L                
1 31306U 07016A   26202.25500727 -.00000185  00000+0  00000+0 0  9990
2 31306   1.4076  81.3091 0005485  36.6399 248.3532  1.00272037 45326
ASTRA 4A                
1 32299U 07057A   26202.26081397  .00000034  00000+0  00000+0 0  9997
2 32299   0.0584 271.4270 0002694 212.6970 273.5975  1.00274014 51985
ASTRA 1M                
1 33436U 08057A   26202.26367398  .00000121  00000+0  00000+0 0  9997
2 33436   0.3818  82.8656 0004730  43.9173 286.5299  1.00272871 46073
NSS-9                   
1 33749U 09008A   26202.27267083  .00000071  00000+0  00000+0 0  9996
2 33749   1.3477  82.3245 0002366  22.5699 115.3629  1.00270848 63864
SES-7 (PROTOSTAR 2)     
1 34941U 09027A   26202.28135406 -.00000344  00000+0  00000+0 0  9990
2 34941   0.0084  17.5925 0001271 173.6313 317.3397  1.00270887 62979
NSS-12                  
1 36032U 09058A   26202.12858763  .00000072  00000+0  00000+0 0  9995
2 36032   0.0773 269.3068 0004921 173.5163 319.3518  1.00273290 61257
SES-1                   
1 36516U 10016A   26202.25354964 -.00000113  00000+0  00000+0 0  9993
2 36516   0.0501 271.9153 0002631 201.4278 175.9477  1.00272164 59370
ASTRA 3B                
1 36581U 10021A   26202.26454065  .00000137  00000+0  00000+0 0  9990
2 36581   1.5543  83.1310 0004249  27.5120 307.1130  1.00272931 59201
SES-3                   
1 37748U 11035A   26202.25044965 -.00000102  00000+0  00000+0 0  9998
2 37748   1.4125  82.7149 0002210  36.7631 166.7062  1.00271996 54930
ASTRA 1N                
1 37775U 11041A   26202.26367398  .00000121  00000+0  00000+0 0  9994
2 37775   0.0654  22.2995 0006013  94.6034 296.2194  1.00273013 44863
SES-2                   
1 37809U 11049A   26202.23933683 -.00000195  00000+0  00000+0 0  9995
2 37809   0.1431  90.7691 0002886  26.0627 181.3218  1.00271547 54300
QUETZSAT 1              
1 37826U 11054A   26202.26399709 -.00000241  00000+0  00000+0 0  9990
2 37826   0.0384 278.3445 0002910 206.0391 192.6789  1.00271521 50218
SES-4                   
1 38087U 12007A   26202.25552727 -.00000167  00000+0  00000+0 0  9996
2 38087   0.0220  28.2190 0002412  95.3330 245.4608  1.00270314 52561
SES-5                   
1 38652U 12036A   26202.26090064  .00000035  00000+0  00000+0 0  9991
2 38652   0.0455 317.5834 0002142 161.0751 279.2640  1.00273402 44794
ASTRA 2F                
1 38778U 12051A   26202.26549399  .00000151  00000+0  00000+0 0  9996
2 38778   0.0733 253.6198 0003208 287.3960 241.7390  1.00272988 41479
SES-6                   
1 39172U 13026A   26202.25188726 -.00000260  00000+0  00000+0 0  9992
2 39172   0.0159  16.6954 0002741  83.6774 248.8270  1.00271636 48064
O3B FM5                 
1 39188U 13031A   26201.82148026 -.00000024  00000+0  00000+0 0  9994
2 39188   0.0942 333.5305 0002783 130.8537 255.6438  5.00115650238723
O3B FM4                 
1 39189U 13031B   26201.94092158 -.00000024  00000+0  00000+0 0  9992
2 39189   0.0405 347.6571 0004893 113.7055 258.6896  5.00115704238730
O3B FM2                 
1 39190U 13031C   26202.20627718 -.00000024  00000+0  00000+0 0  9990
2 39190   0.0346 345.1065 0002708 130.2966 244.6223  5.00116116238811
O3B PFM                 
1 39191U 13031D   26200.62127575 -.00000024  00000+0  00000+0 0  9991
2 39191   0.0664 345.7445 0005286 119.3912 254.9195  5.00116082238281
ASTRA 2E                
1 39285U 13056A   26202.26549399  .00000151  00000+0  00000+0 0  9996
2 39285   0.0672 323.2626 0002560 153.6090 306.1864  1.00271910 46756
SES-8                   
1 39460U 13071A   26202.12197517 -.00000269  00000+0  00000+0 0  9995
2 39460   0.0620 260.9649 0002823 216.1477 320.6771  1.00271370 44769
ASTRA 5B                
1 39617U 14011B   26202.26454065  .00000138  00000+0  00000+0 0  9997
2 39617   0.0643 310.0503 0002150 177.1556 290.4948  1.00271622 45009
O3B FM3                 
1 40079U 14038A   26201.88731140 -.00000024  00000+0  00000+0 0  9994
2 40079   0.0478 352.5495 0002780 179.2323 188.2200  5.00115739214737
O3B FM7                 
1 40080U 14038B   26201.43365645 -.00000024  00000+0  00000+0 0  9990
2 40080   0.0448 344.0058 0003527 102.5147 273.5168  5.00115667219534
O3B FM6                 
1 40081U 14038C   26202.06029886 -.00000024  00000+0  00000+0 0  9995
2 40081   0.0462 349.7511 0002611 128.0210 242.2516  5.00115801219523
O3B FM8                 
1 40082U 14038D   26202.11352989 -.00000024  00000+0  00000+0 0  9995
2 40082   0.0457 348.3325 0002760 132.6989 238.9930  5.00116107219639
O3B FM10                
1 40348U 14083A   26201.74103101 -.00000024  00000+0  00000+0 0  9998
2 40348   0.0403 347.6090 0004885 113.4214 259.0216  5.00115698211574
O3B FM11                
1 40349U 14083B   26201.95355262 -.00000024  00000+0  00000+0 0  9999
2 40349   0.0552 350.7215 0002513 111.1587 258.1451  5.00115568211609
O3B FM12                
1 40350U 14083C   26202.18042724 -.00000024  00000+0  00000+0 0  9993
2 40350   0.0542 350.9606 0002481 126.1677 242.8942  5.00115999211610
O3B FM9                 
1 40351U 14083D   26202.20725300 -.00000024  00000+0  00000+0 0  9995
2 40351   0.0559 349.7181 0002671 127.2289 243.0776  5.00116084211776
ASTRA 2G                
1 40364U 14089A   26202.26549399  .00000151  00000+0  00000+0 0  9993
2 40364   0.0610  39.5961 0004585  38.8479 344.3244  1.00271950 42308
SES-9                   
1 41380U 16013A   26202.10198603 -.00000344  00000+0  00000+0 0  9997
2 41380   0.0186 324.2688 0002281 138.5487 341.0644  1.00270275 37786
SES-10                  
1 42432U 17017A   26202.24668722 -.00000272  00000+0  00000+0 0  9990
2 42432   0.0156  47.9696 0002726  71.6831 201.2628  1.00270171 34099
SES-15                  
1 42709U 17026A   26202.27892093  .00000061  00000+0  00000+0 0  9995
2 42709   0.0290 317.0918 0001024 186.3345 126.8704  1.00272289  7771
SES-11 (ECHOSTAR 105)   
1 42967U 17063A   26202.24299477 -.00000088  00000+0  00000+0 0  9996
2 42967   0.0203 337.7094 0002891 129.9419 173.8701  1.00271855 32060
SES-14                  
1 43175U 18012B   26202.25050058 -.00000278  00000+0  00000+0 0  9995
2 43175   0.0132  37.7086 0001035  71.0763 232.8966  1.00271286  7361
O3B FM15                
1 43231U 18024A   26201.67440228 -.00000024  00000+0  00000+0 0  9997
2 43231   0.0531 359.1875 0002597 118.5049 242.3310  5.00115836152702
O3B FM16                
1 43232U 18024B   26202.12650318 -.00000024  00000+0  00000+0 0  9992
2 43232   0.0538   3.5564 0002612 113.4921 242.9754  5.00116019152641
O3B FM14                
1 43233U 18024C   26202.16732249 -.00000024  00000+0  00000+0 0  9991
2 43233   0.0527   4.6903 0002858 114.0900 241.2457  5.00115798152640
O3B FM13                
1 43234U 18024D   26196.23648676 -.00000024  00000+0  00000+0 0  9992
2 43234   0.0539 323.2184 0001930  92.4344 304.3616  5.00115602152468
SES-12                  
1 43488U 18049A   26202.13604100 -.00000268  00000+0  00000+0 0  9991
2 43488   0.0110   9.2453 0000718 230.3576 203.2654  1.00269056 29750
O3B FM20                
1 44112U 19020A   26201.99349881 -.00000024  00000+0  00000+0 0  9991
2 44112   0.0529 355.5418 0002343 116.5173 247.9629  5.00115676133262
O3B FM19                
1 44113U 19020B   26201.02105029 -.00000024  00000+0  00000+0 0  9990
2 44113   0.0665 344.6135 0005087 111.9760 263.4653  5.00116115133087
O3B FM17                
1 44114U 19020C   26201.70090408 -.00000024  00000+0  00000+0 0  9990
2 44114   0.0376  11.9948 0002567 106.3038 241.7244  5.00115640133200
O3B FM18                
1 44115U 19020D   26202.24692137 -.00000024  00000+0  00000+0 0  9998
2 44115   0.0533 355.3155 0002758 123.9544 240.7550  5.00115429133349
SES-17                  
1 49332U 21095A   26202.17530972 -.00000272  00000+0  00000+0 0  9994
2 49332   0.0227  51.7140 0001331  81.7327 161.5040  1.00272160 18193
SES-22                  
1 52933U 22071A   26202.23891390  .00000105  00000+0  00000+0 0  9995
2 52933   0.0383 259.4541 0001033 210.9589 135.5951  1.00274045  7862
SES-20                  
1 53960U 22123A   26202.26086351 -.00000100  00000+0  00000+0 0  9996
2 53960   0.0138  71.3169 0002313  32.2133 186.2960  1.00273664 13877
SES-21                  
1 53961U 22123B   26202.24108410  .00000070  00000+0  00000+0 0  9991
2 53961   0.0235  34.2709 0000833  89.3662 131.1633  1.00269545  7556
O3B MPOWER F1           
1 54755U 22174A   26202.12373427 -.00000024  00000+0  00000+0 0  9998
2 54755   0.0487 338.9649 0006673 150.7006 228.3447  5.00114814 67052
O3B MPOWER F2           
1 54756U 22174B   26201.89169047 -.00000024  00000+0  00000+0 0  9993
2 54756   0.0446 339.7045 0005775 133.8670 246.4863  5.00114934 67133
SES-18                  
1 55970U 23038A   26202.26086351 -.00000100  00000+0  00000+0 0  9995
2 55970   0.0628 261.8634 0000990 288.9927  98.9710  1.00272181 12444
SES-19                  
1 55971U 23038B   26202.23317441  .00000088  00000+0  00000+0 0  9994
2 55971   0.0433 269.9424 0001831 211.4372 126.6478  1.00273374 12439
O3B MPOWER F4           
1 56367U 23059A   26201.95591329 -.00000024  00000+0  00000+0 0  9995
2 56367   0.0628 349.0047 0007738 133.0309 238.0369  5.00115401 60291
O3B MPOWER F3           
1 56368U 23059B   26202.18892373 -.00000024  00000+0  00000+0 0  9995
2 56368   0.0635 348.1162 0006651 127.6165 244.3332  5.00116469 56425
O3B MPOWER F5           
1 58346U 23175A   26201.49036564 -.00000024  00000+0  00000+0 0  9997
2 58346   0.0530   8.6566 0005566 128.5497 222.8340  5.00115850 51108
O3B MPOWER F6           
1 58347U 23175B   26202.19051616 -.00000024  00000+0  00000+0 0  9991
2 58347   0.0545   0.1553 0004432 118.3076 241.5790  5.00115756 50043
ASTRA 1P (SES-24)       
1 60086U 24115A   26202.26367398  .00000121  00000+0  00000+0 0  9991
2 60086   0.0687 326.3123 0000935 219.7675 227.0709  1.00270514  7539
O3B MPOWER F7           
1 62362U 24244A   26201.85714084 -.00000024  00000+0  00000+0 0  9998
2 62362   0.0655 341.7080 0005927 133.1002 245.2506  5.00115354 28203
O3B MPOWER F8           
1 62363U 24244B   26202.02398492 -.00000024  00000+0  00000+0 0  9990
2 62363   0.0151  10.8368 0005690  97.2245 251.9979  5.00115075 22565
O3B MPOWER F9           
1 64866U 25153A   26201.95735850 -.00000024  00000+0  00000+0 0  9994
2 64866   0.0619   4.6293 0006787 132.3897 223.0313  5.00115641 21250
O3B MPOWER F10          
1 64867U 25153B   26202.12331171 -.00000024  00000+0  00000+0 0  9993
2 64867   0.0589   1.2755 0002569 246.5239 112.1706  5.00114962 23728
